#cP2017 10 30  0  0  0.00000000      96 ORBIT IGS14 HLM  IGS
## 1973  86400.00000000   900.00000000 58056 0.0000000000000
+   32   G01G02G03G04G05G06G07G08G09G10G11G12G13G14G15G16G17
+        G18G19G20G21G22G23G24G25G26G27G28G29G30G31G32  0  0
+          0  0  0  0  0  0  0  0  0  0  0  0  0  0  0  0  0
+          0  0  0  0  0  0  0  0  0  0  0  0  0  0  0  0  0
+          0  0  0  0  0  0  0  0  0  0  0  0  0  0  0  0  0
++         2  2  2  0  2  2  2  2  2  2  2  2  2  2  2  2  2
++         2  2  2  2  2  2  2  2  2  2  2  2  2  2  2  0  0
++         0  0  0  0  0  0  0  0  0  0  0  0  0  0  0  0  0
++         0  0  0  0  0  0  0  0  0  0  0  0  0  0  0  0  0
++         0  0  0  0  0  0  0  0  0  0  0  0  0  0  0  0  0
%c G  cc GPS ccc cccc cccc cccc cccc ccccc ccccc ccccc ccccc
%c cc cc ccc ccc cccc cccc cccc cccc ccccc ccccc ccccc ccccc
%f  1.2500000  1.025000000  0.00000000000  0.000000000000000
%f  0.0000000  0.000000000  0.00000000000  0.000000000000000
%i    0    0    0    0      0      0      0      0         0
%i    0    0    0    0      0      0      0      0         0
/* RAPID ORBIT COMBINATION FROM WEIGHTED AVERAGE OF:        
/* cod emr esa gfz jpl ngs sio usn whu                      
/* REFERENCED TO IGS TIME (IGST) AND TO WEIGHTED MEAN POLE: 
/* PCV:IGS14_1972 OL/AL:FES2004  NONE     Y  ORB:CMB CLK:CMB
*  2017 10 30 13 30  0.00000000
PG01  22760.005600  13858.680837   1717.775482     -7.262104  6  2  2  50       
PG02  -7896.546288 -19141.189307  17324.084889    293.533445  9  7  5  84       
PG03  13558.234778  10484.386258  20282.610706    -49.103348  3  4  6  88       
PG04  -5270.309885  18442.030766 -18310.619889 999999.999999
PG05  -3664.422181 -25362.164578  -6656.160740    -24.338550  6  4  7  87       
PG06   5482.520188 -14281.744741  21730.453030    407.371321  5  5  3 102       
PG07  21954.838758   2585.661744 -14838.181110    286.325885  8  7  5  95       
PG08  11543.478764  10628.017143 -21392.211605    -78.842278  5  5  6  66       
PG09  24616.006388  -6687.463368   7392.698532    465.009957  3  5  4  89       
PG10 -10967.889584  19657.762878 -13965.542118    100.222565  6  3  3 101       
PG11  23025.326819  10695.162027  -8165.889170   -723.961779  7  4  6  67       
PG12 -10791.203912 -14933.425409  19041.164983    366.971325  5  5  4 108       
PG13  -3376.123290 -14771.545452 -21928.948419    -93.378340  8  3  3 121       
PG14 -13149.097060  17099.842882  15665.593271    -87.433573  4  5  4  99       
PG15 -14907.896544  -8850.874979 -20396.594440   -356.929603  5  6  5 110       
PG16   1501.097410  25201.577657  -7683.835992     36.692560  3  4  4  62       
PG17  20345.958313 -14973.605204   8315.025775   -147.773823  8  5  6  81       
PG18 -14691.527090   9437.062338 -19378.016256    632.062830  7  4  5  84       
PG19  15108.305678 -16222.200325  14513.003085   -478.409382  6  5  5  51       
PG20 -13920.063438 -14158.845374 -17808.678310    491.278887 10  5  7 113       
PG21 -20634.269509   1110.370058 -15935.753565   -466.644564  9  5  4  91       
PG22  11821.668333  17855.706629  15930.216096   -172.250510  8  1  5  70       
PG23  21435.743389   2110.967993  16069.604975   -218.424261  7  3  2  94       
PG24 -22248.321561 -14724.335144  -1289.292480    -41.575576  4  5  6 106       
PG25 -14777.466945  -1013.290722  21892.471530   -481.264617  5  5  3  93       
PG26  -3747.595132  25996.664135   3549.914842   -379.727382  5     4  60       
PG27  -1190.143951  16388.753163 -20875.804297    342.698479  6  7  5  87       
PG28  12932.259707 -16432.267297 -15748.872161    658.359680 10  6  4  75       
PG29 -23770.691742   1628.730634  11710.855172    544.648488  7  5  6 110       
PG30  15440.751373  -6901.802722 -20500.982802    131.379210  5  6  3  86       
PG31  -3451.637120  15574.174966  21230.732279    165.434137  7  5     79       
PG32 -18167.637279  16779.484585   9626.727058   -518.703846  5  3  6  92       
*  2017 10 30 13 45  0.00000000
PG01  22688.060266  14063.607544  -1137.207360     -7.264166  6  2  3  75       
PG02  -6102.230762 -18311.309391  18895.357907    293.524659  9  7  5  97       
PG03  13382.230667  12734.989876  19080.596871    -49.098657  4  4  5  86       
PG04  -7023.076386  19394.131986 -16596.676368 999999.999999
PG05  -3357.170703 -25956.306390  -3902.944740    -24.337492  6  5  7  78       
PG06   7612.454735 -12991.953333  21898.368709    407.373155  4  4  3 110       
PG07  23193.403946   3594.528459 -12648.683680    286.321603  7  8  6 102       
PG08   9388.192735  11852.559959 -21788.940803    -78.842835  5  5  5  91       
PG09  23863.967154  -5982.673888   9993.345531    465.014558  2  5  4  84       
PG10 -11115.442639  17927.829909 -16032.977511    100.229946  6  4  3  90       
PG11  21963.324432  10914.414031 -10616.832305   -723.963132  6  4  6  95       
PG12 -10507.433353 -17019.913026  17409.642086    366.970059  5  6  5  89       
PG13  -1077.642682 -15649.951814 -21549.732491    -93.379256  9  4  4 125       
PG14 -14719.083330  17587.780394  13532.152858    -87.434340  2  5  4 106       
PG15 -12975.379091 -10169.056208 -21063.156438   -356.929821  5  6  6 109       
PG16   1229.235018  25884.701860  -4870.192708     36.692485  4  4  3  68       
PG17  21106.053960 -15124.359850   5556.123743   -147.771764  8  5  5  93       
PG18 -14866.393642   7038.732915 -20236.317268    632.063672  7  4  5  72       
PG19  16608.098834 -16684.533200  12233.076461   -478.407802  7  6  5  92       
PG20 -13852.779819 -16092.985825 -16127.113829    491.280063 10  5  8 114       
PG21 -22124.520198      5.227274 -13954.483458   -466.641631  9  6  5  68       
PG22  11606.023052  19544.245210  13951.509817   -172.261955  7     4  66       
PG23  19863.401996   3160.852787  17811.689304   -218.424137  7  3  2  90       
PG24 -21852.916676 -14822.421580  -4073.254489    -41.576805  4  4  5 111       
PG25 -14687.557977  -3534.673114  21710.867053   -481.270320  5  6  2  68       
PG26  -4004.582604  25426.097867   6330.220566   -379.715741  5     3  85       
PG27  -3266.460116  17417.130389 -19770.078551    342.701927  6  7  5  87       
PG28  12834.294547 -14415.456632 -17617.746564    658.362531  9  6  4  92       
PG29 -22500.951220    865.005589  14063.376219    544.644123  7  5  6 123       
PG30  17258.470375  -5506.155776 -19460.432297    131.376970  5  6  3  84       
PG31  -5525.975388  14270.826127  21739.976458    165.431714  7  5  1  83       
PG32 -19119.500612  17018.916680   6990.856245   -518.707303  4  4  6 102       
*  2017 10 30 14  0  0.00000000
PG01  22346.636207  14118.103176  -3972.972539     -7.266186  5  1  4  76       
PG02  -4126.843937 -17507.970386  20157.439759    293.516159  8  7  5  97       
PG03  13319.226380  14836.632731  17550.169078    -49.093952  4  4  5  85       
PG04  -8561.161693  20308.550758 -14594.378986 999999.999999
PG05  -3064.173951 -26249.274987  -1081.815005    -24.336448  6  6  7  89       
PG06   9806.101796 -11818.794375  21690.156541    407.375010  3  4  3 109       
PG07  24256.310778   4406.390855 -10243.943875    286.316965  7  8  6  97       
PG08   7280.106920  13203.205506 -21809.110800    -78.843852  5  4  4  88       
PG09  22908.223628  -5088.228431  12421.888637    465.019183     5  4  56       
PG10 -11358.985018  15989.570470 -17822.487726    100.237323  6  4  2  98       
PG11  20654.272275  11151.861371 -12888.445460   -723.964903  5  4  7  70       
PG12 -10348.568162 -18914.075873  15477.069878    366.968916  5  6  5 102       
PG13   1112.824451 -16623.955131 -20803.636756    -93.379371  9  5  4 133       
PG14 -16038.870534  18040.598627  11167.642530    -87.435233  2  5  4 112       
PG15 -11061.300175 -11612.234872 -21374.819818   -356.929952  6  7  6 104       
PG16   1010.294259  26255.552499  -1970.900221     36.691945  5  5  3  82       
PG17  21580.651319 -15160.517427   2701.556633   -147.769960  9  5  4  78       
PG18 -15154.342598   4573.008159 -20726.794029    632.063968  7  4  6  82       
PG19  17833.916846 -17109.307182   9741.875796   -478.405988  8  6  5  91       
PG20 -13850.256415 -17826.876860 -14171.241929    491.281173 10  6  8 115       
PG21 -23444.068019   -915.371851 -11721.784725   -466.638229  9  7  6  70       
PG22  11450.027496  21008.671637  11735.676885   -172.273437  6     4  85       
PG23  18195.264682   4384.680393  19257.590253   -218.424537  6  4  2  99       
PG24 -21186.728709 -14803.106853  -6788.344256    -41.576763  5  4  5 112       
PG25 -14733.191465  -6012.533367  21150.999712   -481.276064  5  6  2  87       
PG26  -4303.752679  24560.656431   9000.914712   -379.704059  5     3  80       
PG27  -5162.950977  18481.113980 -18323.761342    342.705451  6  7  5  58       
PG28  12837.964921 -12193.776736 -19168.340989    658.365224  9  7  4  96       
PG29 -21052.656910    -88.559710  16173.550647    544.639411  6  5  6 108       
PG30  19026.631967  -4275.291771 -18086.028429    131.374755  6  6  3  86       
PG31  -7694.267771  13062.561597  21876.241655    165.429558  7  6  2 104       
PG32 -19799.178677  17144.667461   4234.315675   -518.710646  5  4  6 111       
EOF
